STARLINK-4575           
1 53565U 22101AQ  22243.91667824  .00032432  00000+0  23433-3 0  9997
2 53565  53.2156  94.7018 0001367  68.1437  28.3242 15.73227102  1308
STARLINK-4576           
1 53566U 22101AR  22243.91667824 -.00114726  00000+0 -82250-3 0  9999
2 53566  53.2156  94.6964 0001327  55.3181  44.3804 15.73247877  1301
STARLINK-4585           
1 53567U 22101AS  22243.91667824 -.00132632  00000+0 -95530-3 0  9991
2 53567  53.2158  94.6998 0001489  59.8431  38.1112 15.73205465  1307
STARLINK-4583           
1 53568U 22101AT  22243.91667824 -.00091273  00000+0 -65142-3 0  9993
2 53568  53.2155  94.6923 0001396  49.3843  52.0936 15.73255251  1308
STARLINK-4582           
1 53569U 22101AU  22243.91667824 -.00076689  00000+0 -54619-3 0  9995
2 53569  53.2156  94.6965 0001176  51.3989  47.7064 15.73234243  1307
STARLINK-4550           
1 53570U 22101AV  22243.91667824  .00236200  00000+0  16514-2 0  9993
2 53570  53.2173  94.6903 0001199  65.0387  35.8692 15.73044399  1305
STARLINK-4584           
1 53571U 22101AW  22243.91667824 -.00079991  00000+0 -57040-3 0  9998
2 53571  53.2156  94.6939 0001105  50.7070  49.5976 15.73222989  1303
STARLINK-4555           
1 53572U 22101AX  22243.91667824 -.00059154  00000+0 -41972-3 0  9995
2 53572  53.2158  94.6888 0001457  48.5218  54.7717 15.73216082  1306
STARLINK-4547           
1 53573U 22101AY  22243.91667824 -.00002863  00000+0 -15982-4 0  9994
2 53573  53.2175  94.6867 0001417  51.5938  50.4139 15.73205772  1307
STARLINK-4559           
1 53574U 22101AZ  22243.91667824 -.00002842  00000+0 -15834-4 0  9998
2 53574  53.2175  94.6825 0001469  48.5931  55.7990 15.73205771  1300
STARLINK-4551           
1 53575U 22101BA  22243.91667824 -.00015841  00000+0 -10863-3 0  9998
2 53575  53.2157  94.6900 0001296  53.4170  49.2562 15.73206758  1302
STARLINK-4581           
1 53576U 22101BB  22243.91667824 -.00002668  00000+0 -14594-4 0  9998
2 53576  53.2175  94.6813 0001418  51.5223  53.4659 15.73205654  1308
STARLINK-4553           
1 53577U 22101BC  22243.91667824 -.00002965  00000+0 -16712-4 0  9993
2 53577  53.2175  94.6831 0001432  50.8188  52.9772 15.73205851  1306
STARLINK-4556           
1 53578U 22101BD  22243.91667824 -.00047304  00000+0 -33322-3 0  9995
2 53578  53.2157  94.6848 0001371  51.8797  53.6477 15.73290297  1302
STARLINK-4580           
1 53579U 22101BE  22243.91667824 -.00002661  00000+0 -14544-4 0  9999
2 53579  53.2175  94.6783 0001353  55.9300  50.2505 15.73205650  1300
FALCON 9 DEB            
1 53580U 22101BF  22243.78994122  .00729146  11514-4  71092-3 0  9999
2 53580  53.2175  94.0512 0054504  87.2333 273.4939 16.07538929  1931
FALCON 9 DEB            
1 53581U 22101BG  22243.72383426  .00691130  11521-4  67587-3 0  9996
2 53581  53.2142  94.3418 0050685  88.3511 272.3329 16.07925631  1920
FALCON 9 DEB            
1 53582U 22101BH  22243.77770021  .00668512  11553-4  61065-3 0  9991
2 53582  53.2153  93.9559 0048662  81.7495 278.9055 16.09117431  1936
FALCON 9 DEB            
1 53583U 22101BJ  22243.71518425  .00720866  11557-4  65003-3 0  9995
2 53583  53.2159  94.2766 0048699  83.4565 277.2012 16.09290293  1926
CHUANGXIN 16 (CX-16)    
1 53586U 22102A   22243.85728515  .00001019  00000+0  85811-4 0  9995
2 53586  28.9989 311.7599 0004720 342.3356  17.7075 14.91646769  1313
BEIJING-3B              
1 53587U 22103A   22243.90622708  .00000750  00000+0  88987-4 0  9998
2 53587  97.9416 312.5281 0013703 237.5717 122.4162 14.87450186  1164
NOAA 1 [-]              
1 04793U 70106A   22243.15462686 -.00000032  00000+0  72689-4 0  9999
2 04793 101.5510 305.0661 0031790 176.2339 240.5135 12.54007170366956
NOAA 2 (ITOS-D) [-]     
1 06235U 72082A   22243.90298630 -.00000033  00000+0  84863-4 0  9994
2 06235 101.9595 226.6225 0003740 295.3357 119.2958 12.53150839281420
NOAA 3 [-]              
1 06920U 73086A   22243.48847066 -.00000038  00000+0  58505-4 0  9995
2 06920 102.2134 225.2611 0006501 148.8537 327.0350 12.40347901210283
NOAA 4 [-]              
1 07529U 74089A   22243.49555744 -.00000041  00000+0  33887-4 0  9995
2 07529 101.9197 223.3687 0008897 323.3617 149.3847 12.53159704185941
NOAA 5 [-]              
1 09057U 76077A   22243.49461108 -.00000017  00000+0  21240-3 0  9994
2 09057 102.1049 210.7008 0010149   3.0767 113.6927 12.37773871 83024
TIROS N [-]             
1 11060U 78096A   22243.12119885  .00000060  00000+0  49670-4 0  9991
2 11060  98.6293 294.8634 0009518 290.4005  69.6148 14.18408111482193
NOAA 6 [-]              
1 11416U 79057A   22243.91096408  .00000093  00000+0  49427-4 0  9992
2 11416  98.6648 254.8849 0011081  41.4289 318.7734 14.33789533252339
NOAA 7 [-]              
1 12553U 81059A   22243.69573272 -.00000023  00000+0  11212-4 0  9999
2 12553  98.9931 289.0243 0010491 261.0330  98.9657 14.17341307128450
NOAA 8 [-]              
1 13923U 83022A   22243.91637365  .00000042  00000+0  34463-4 0  9995
2 13923  98.6921 234.1828 0015007 353.4010   6.6972 14.28826271 53180
NOAA 9 [-]              
1 15427U 84123A   22243.90431127  .00000044  00000+0  45333-4 0  9996
2 15427  99.0524 217.4974 0014147 314.9589  98.9562 14.16218188947290
NOAA 10 [-]             
1 16969U 86073A   22243.90330810  .00000035  00000+0  31259-4 0  9993
2 16969  98.5738 228.6879 0013411  91.0960 325.4975 14.28216247871604
NOAA 11 [-]             
1 19531U 88089A   22243.91610947  .00000008  00000+0  25312-4 0  9996
2 19531  98.4302 228.8713 0010483 326.7734  33.2782 14.15319477751499
NOAA 12 [-]             
1 21263U 91032A   22243.92096861  .00000009  00000+0  21470-4 0  9999
2 21263  98.5177 241.6379 0014726 116.3888 243.8806 14.26006660627489
NOAA 13 [-]             
1 22739U 93050A   22243.86842363  .00000049  00000+0  48228-4 0  9993
2 22739  98.5114 219.9313 0010449 123.2643 236.9533 14.12857582497701
NOAA 14 [-]             
1 23455U 94089A   22243.83411803  .00000003  00000+0  22898-4 0  9995
2 23455  98.4453 266.4520 0010638 106.1528 254.0818 14.14206394427364
NOAA 15 [B]             
1 25338U 98030A   22243.84032235  .00000070  00000+0  47360-4 0  9991
2 25338  98.6404 272.3757 0011511  79.7370 280.5108 14.26165800263760
NOAA 16 [-]             
1 26536U 00055A   22243.86398533  .00000012  00000+0  28918-4 0  9994
2 26536  98.6301 300.1416 0009632 314.7662  45.2727 14.13340197428009
NOAA 17 [-]             
1 27453U 02032A   22243.90722528  .00000035  00000+0  33743-4 0  9997
2 27453  98.6753 188.3019 0012850  55.5349 304.7043 14.25136828 49608
NOAA 18 [B]             
1 28654U 05018A   22243.84516400  .00000133  00000+0  95665-4 0  9991
2 28654  98.9442 314.2050 0015279 117.2978 242.9751 14.12769890890629
NOAA 19 [+]             
1 33591U 09005A   22243.85495586  .00000076  00000+0  66091-4 0  9996
2 33591  99.1431 279.5577 0013468 340.3157  19.7493 14.12603661698834
SUOMI NPP [+]           
1 37849U 11061A   22243.90290712  .00000021  00000+0  30778-4 0  9994
2 37849  98.7344 181.4170 0001247  82.6337 348.3930 14.19540348561903
NOAA 20 [+]             
1 43013U 17073A   22243.85302147  .00000024  00000+0  31920-4 0  9996
2 43013  98.7183 181.2366 0001001 112.9999 247.1283 14.19540424247923
CELESTIS-02             
1 25160U 98007D   22243.40914213 -.00000065  00000+0  28718-4 0  9996
2 25160 107.9914  57.6822 0063212 340.3252  84.9815 14.21641708273517
CELESTIS-03             
1 26034U 99070C   22243.82199064  .00009582  00000+0  43697-3 0  9997
2 26034  98.3120 257.3993 0008475 219.8082 140.2530 15.20860344232535
O3B FM5                 
1 39188U 13031A   22243.63603681 -.00000014  00000+0  00000+0 0  9997
2 39188   0.0587  19.9943 0002579 142.9231 197.0933  5.00115269167725
O3B FM4                 
1 39189U 13031B   22243.89197184 -.00000014  00000+0  00000+0 0  9992
2 39189   0.0548 351.6084 0002542 171.1636 197.2387  5.00115765167746
O3B FM2                 
1 39190U 13031C   22243.78352760 -.00000014  00000+0  00000+0 0  9995
2 39190   0.0566 346.7159 0002577 175.1819 198.1135  5.00116822167792
O3B PFM                 
1 39191U 13031D   22243.41000823 -.00000014  00000+0  00000+0 0  9996
2 39191   0.0545  11.8164 0002645 148.0745 200.1216  5.00115671167345
O3B FM3                 
1 40079U 14038A   22243.66465993 -.00000014  00000+0  00000+0 0  9991
2 40079   0.0550 359.7205 0004986 150.9831 209.3264  5.00115347143737
O3B FM7                 
1 40080U 14038B   22243.41084060 -.00000014  00000+0  00000+0 0  9998
2 40080   0.0584 356.7818 0001376 206.4291 156.7848  5.00115466148549
O3B FM6                 
1 40081U 14038C   22243.83699761 -.00000014  00000+0  00000+0 0  9995
2 40081   0.0543 358.9200 0002686 162.1044 198.9876  5.00115359148510
O3B FM8                 
1 40082U 14038D   22243.89093379 -.00000014  00000+0  00000+0 0  9995
2 40082   0.0533 355.6536 0002659 162.1658 202.1941  5.00115649148633
O3B FM10                
1 40348U 14083A   22243.51719206 -.00000014  00000+0  00000+0 0  9993
2 40348   0.0506   7.9982 0002616 151.8821 200.1320  5.00115088140571
O3B FM11                
1 40349U 14083B   22243.53065490 -.00000014  00000+0  00000+0 0  9995
2 40349   0.0553   8.4069 0002376 166.8637 184.7337  5.00115390140740
O3B FM12                
1 40350U 14083C   22243.15807741 -.00000015  00000+0  00000+0 0  9999
2 40350   0.0548   7.5937 0002717 155.4960 196.9213  5.00115259140586
O3B FM9                 
1 40351U 14083D   22243.78467125 -.00000014  00000+0  00000+0 0  9996
2 40351   0.0564   8.8099 0002586 152.9095 198.2921  5.00115902140758
DIAMOND RED             
1 42783U 17036U   22243.82770234  .00005277  00000+0  19265-3 0  9993
2 42783  97.1937 282.0600 0011865  67.6274 292.6222 15.28472950288458
DIAMOND GREEN           
1 42785U 17036W   22243.56623793  .00005875  00000+0  21440-3 0  9995
2 42785  97.1939 281.8705 0011718  69.9529 290.2972 15.28440593288487
